{"type": "FeatureCollection", "features": [ {"type": "Feature", "properties": {"norad_id": 66625, "name": "STARLINK-35929", "group": "last-30-days", "lat": 15.080214507462655, "lon": 138.73227445884007, "alt_km": 445.52588723031386, "timestamp": "2025-12-25T09:48:51.003633+00:00", "meta": {"OBJECT_NAME": "STARLINK-35929", "OBJECT_ID": "2025-271J", "EPOCH": "2025-12-25T01:56:33.005184", "MEAN_MOTION": 15.39637439, "ECCENTRICITY": 9.15e-05, "INCLINATION": 53.1599, "RA_OF_ASC_NODE": 128.6236, "ARG_OF_PERICENTER": 76.8291, "MEAN_ANOMALY": 283.2816, "EPHEMERIS_TYPE": 0, "CLASSIFICATION_TYPE": "U", "NORAD_CAT_ID": 66625, "ELEMENT_SET_NO": 999, "REV_AT_EPOCH": 611, "BSTAR": 0.00091454, "MEAN_MOTION_DOT": 0.00036377, "MEAN_MOTION_DDOT": 0}, "tle": {"line1": "1 66625U 25271J   25359.08093756  .00036377  00000+0  91454-3 0  9995", "line2": "2 66625  53.1599 128.6236 0000915  76.8291 283.2816 15.39637439  6113"}}, "geometry": {"type": "Point", "coordinates": [138.73227445884007, 15.080214507462655]}}, {"type": "Feature", "properties": {"norad_id": 66626, "name": "STARLINK-35902", "group": "last-30-days", "lat": -42.89304373027773, "lon": 83.08943068311643, "alt_km": 453.00028065064544, "timestamp": "2025-12-25T09:48:51.003646+00:00", "meta": {"OBJECT_NAME": "STARLINK-35902", "OBJECT_ID": "2025-271K", "EPOCH": "2025-12-25T02:16:37.216416", "MEAN_MOTION": 15.39633022, "ECCENTRICITY": 0.0002835, "INCLINATION": 53.1624, "RA_OF_ASC_NODE": 128.7124, "ARG_OF_PERICENTER": 76.2849, "MEAN_ANOMALY": 283.8471, "EPHEMERIS_TYPE": 0, "CLASSIFICATION_TYPE": "U", "NORAD_CAT_ID": 66626, "ELEMENT_SET_NO": 999, "REV_AT_EPOCH": 611, "BSTAR": 0.00098179, "MEAN_MOTION_DOT": 0.00039092, "MEAN_MOTION_DDOT": 0}, "tle": {"line1": "1 66626U 25271K   25359.09487519  .00039092  00000+0  98179-3 0  9999", "line2": "2 66626  53.1624 128.7124 0002835  76.2849 283.8471 15.39633022  6113"}}, "geometry": {"type": "Point", "coordinates": [83.08943068311643, -42.89304373027773]}}, {"type": "Feature", "properties": {"norad_id": 66627, "name": "STARLINK-35904", "group": "last-30-days", "lat": -5.398638957387588, "lon": 123.06659581618331, "alt_km": 448.26926114909475, "timestamp": "2025-12-25T09:48:51.003656+00:00", "meta": {"OBJECT_NAME": "STARLINK-35904", "OBJECT_ID": "2025-271L", "EPOCH": "2025-12-24T16:42:22.619232", "MEAN_MOTION": 15.3963468, "ECCENTRICITY": 0.00013967, "INCLINATION": 53.1617, "RA_OF_ASC_NODE": 130.489, "ARG_OF_PERICENTER": 55.4587, "MEAN_ANOMALY": 304.6549, "EPHEMERIS_TYPE": 0, "CLASSIFICATION_TYPE": "U", "NORAD_CAT_ID": 66627, "ELEMENT_SET_NO": 999, "REV_AT_EPOCH": 601, "BSTAR": 0.00049926279, "MEAN_MOTION_DOT": 0.00019631, "MEAN_MOTION_DDOT": 0}, "tle": {"line1": "1 66627U 25271L   25358.69609513  .00019631  00000+0  49926-3 0  9998", "line2": "2 66627  53.1617 130.4890 0001396  55.4587 304.6549 15.39634680  6013"}}, "geometry": {"type": "Point", "coordinates": [123.06659581618331, -5.398638957387588]}}, {"type": "Feature", "properties": {"norad_id": 66628, "name": "STARLINK-35862", "group": "last-30-days", "lat": 41.59983121226627, "lon": -94.86145970388242, "alt_km": 441.15250877099515, "timestamp": "2025-12-25T09:48:51.003666+00:00", "meta": {"OBJECT_NAME": "STARLINK-35862", "OBJECT_ID": "2025-271M", "EPOCH": "2025-12-25T04:00:01.998720", "MEAN_MOTION": 15.39575799, "ECCENTRICITY": 0.0001123, "INCLINATION": 53.1598, "RA_OF_ASC_NODE": 128.0109, "ARG_OF_PERICENTER": 89.1192, "MEAN_ANOMALY": 131.3989, "EPHEMERIS_TYPE": 0, "CLASSIFICATION_TYPE": "U", "NORAD_CAT_ID": 66628, "ELEMENT_SET_NO": 999, "REV_AT_EPOCH": 608, "BSTAR": 0.0015722, "MEAN_MOTION_DOT": 0.00062915, "MEAN_MOTION_DDOT": 0}, "tle": {"line1": "1 66628U 25271M   25359.16668980  .00062915  00000+0  15722-2 0  9994", "line2": "2 66628  53.1598 128.0109 0001123  89.1192 131.3989 15.39575799  6087"}}, "geometry": {"type": "Point", "coordinates": [-94.86145970388242, 41.59983121226627]}}, {"type": "Feature", "properties": {"norad_id": 66629, "name": "STARLINK-35956", "group": "last-30-days", "lat": -7.122208002434453, "lon": 121.06392455855263, "alt_km": 397.42601506162373, "timestamp": "2025-12-25T09:48:51.003676+00:00", "meta": {"OBJECT_NAME": "STARLINK-35956", "OBJECT_ID": "2025-271N", "EPOCH": "2025-12-25T03:41:03.442848", "MEAN_MOTION": 15.55412726, "ECCENTRICITY": 0.0008825, "INCLINATION": 53.1726, "RA_OF_ASC_NODE": 127.6694, "ARG_OF_PERICENTER": 29.8132, "MEAN_ANOMALY": 330.3381, "EPHEMERIS_TYPE": 0, "CLASSIFICATION_TYPE": "U", "NORAD_CAT_ID": 66629, "ELEMENT_SET_NO": 999, "REV_AT_EPOCH": 99, "BSTAR": 0.0067381, "MEAN_MOTION_DOT": 0.00497143, "MEAN_MOTION_DDOT": 0}, "tle": {"line1": "1 66629U 25271N   25359.15351207  .00497143  00000+0  67381-2 0  9998", "line2": "2 66629  53.1726 127.6694 0008825  29.8132 330.3381 15.55412726   995"}}, "geometry": {"type": "Point", "coordinates": [121.06392455855263, -7.122208002434453]}}, {"type": "Feature", "properties": {"norad_id": 66630, "name": "STARLINK-35949", "group": "last-30-days", "lat": 25.24112088122724, "lon": -73.87755954625113, "alt_km": 444.1276842736961, "timestamp": "2025-12-25T09:48:51.003686+00:00", "meta": {"OBJECT_NAME": "STARLINK-35949", "OBJECT_ID": "2025-271P", "EPOCH": "2025-12-25T04:00:01.998720", "MEAN_MOTION": 15.39577975, "ECCENTRICITY": 5.87e-05, "INCLINATION": 53.1599, "RA_OF_ASC_NODE": 127.9625, "ARG_OF_PERICENTER": 97.7106, "MEAN_ANOMALY": 146.6493, "EPHEMERIS_TYPE": 0, "CLASSIFICATION_TYPE": "U", "NORAD_CAT_ID": 66630, "ELEMENT_SET_NO": 999, "REV_AT_EPOCH": 608, "BSTAR": 0.0016868, "MEAN_MOTION_DOT": 0.00067579, "MEAN_MOTION_DDOT": 0}, "tle": {"line1": "1 66630U 25271P   25359.16668980  .00067579  00000+0  16868-2 0  9990", "line2": "2 66630  53.1599 127.9625 0000587  97.7106 146.6493 15.39577975  6082"}}, "geometry": {"type": "Point", "coordinates": [-73.87755954625113, 25.24112088122724]}}, {"type": "Feature", "properties": {"norad_id": 66631, "name": "STARLINK-35965", "group": "last-30-days", "lat": 23.83868398475429, "lon": -72.52819630143202, "alt_km": 444.3511992650274, "timestamp": "2025-12-25T09:48:51.003698+00:00", "meta": {"OBJECT_NAME": "STARLINK-35965", "OBJECT_ID": "2025-271Q", "EPOCH": "2025-12-25T04:00:01.998720", "MEAN_MOTION": 15.39589312, "ECCENTRICITY": 5.9e-05, "INCLINATION": 53.1599, "RA_OF_ASC_NODE": 127.9594, "ARG_OF_PERICENTER": 92.4981, "MEAN_ANOMALY": 153.714, "EPHEMERIS_TYPE": 0, "CLASSIFICATION_TYPE": "U", "NORAD_CAT_ID": 66631, "ELEMENT_SET_NO": 999, "REV_AT_EPOCH": 608, "BSTAR": 0.0018198, "MEAN_MOTION_DOT": 0.00073016, "MEAN_MOTION_DDOT": 0}, "tle": {"line1": "1 66631U 25271Q   25359.16668980  .00073016  00000+0  18198-2 0  9992", "line2": "2 66631  53.1599 127.9594 0000590  92.4981 153.7140 15.39589312  6081"}}, "geometry": {"type": "Point", "coordinates": [-72.52819630143202, 23.83868398475429]}}, {"type": "Feature", "properties": {"norad_id": 66632, "name": "STARLINK-35973", "group": "last-30-days", "lat": -49.05801169409875, "lon": 7.119337785541532, "alt_km": 451.92583888565514, "timestamp": "2025-12-25T09:48:51.003709+00:00", "meta": {"OBJECT_NAME": "STARLINK-35973", "OBJECT_ID": "2025-271R", "EPOCH": "2025-12-24T09:21:44.129376", "MEAN_MOTION": 15.39657214, "ECCENTRICITY": 8.843e-05, "INCLINATION": 53.1616, "RA_OF_ASC_NODE": 132.1345, "ARG_OF_PERICENTER": 44.7602, "MEAN_ANOMALY": 315.3474, "EPHEMERIS_TYPE": 0, "CLASSIFICATION_TYPE": "U", "NORAD_CAT_ID": 66632, "ELEMENT_SET_NO": 999, "REV_AT_EPOCH": 596, "BSTAR": 0.0019181176, "MEAN_MOTION_DOT": 0.00077198, "MEAN_MOTION_DDOT": 0}, "tle": {"line1": "1 66632U 25271R   25358.39009409  .00077198  00000+0  19181-2 0  9990", "line2": "2 66632  53.1616 132.1345 0000884  44.7602 315.3474 15.39657214  5969"}}, "geometry": {"type": "Point", "coordinates": [7.119337785541532, -49.05801169409875]}}, {"type": "Feature", "properties": {"norad_id": 66633, "name": "STARLINK-35948", "group": "last-30-days", "lat": -49.612222806692465, "lon": 9.125090480846957, "alt_km": 452.753642857022, "timestamp": "2025-12-25T09:48:51.003721+00:00", "meta": {"OBJECT_NAME": "STARLINK-35948", "OBJECT_ID": "2025-271S", "EPOCH": "2025-12-24T15:35:10.142016", "MEAN_MOTION": 15.39618587, "ECCENTRICITY": 0.00012272, "INCLINATION": 53.1608, "RA_OF_ASC_NODE": 130.909, "ARG_OF_PERICENTER": 61.4848, "MEAN_ANOMALY": 298.628, "EPHEMERIS_TYPE": 0, "CLASSIFICATION_TYPE": "U", "NORAD_CAT_ID": 66633, "ELEMENT_SET_NO": 999, "REV_AT_EPOCH": 604, "BSTAR": 0.00024094919, "MEAN_MOTION_DOT": 9.25e-05, "MEAN_MOTION_DDOT": 0}, "tle": {"line1": "1 66633U 25271S   25358.64942294  .00009250  00000+0  24095-3 0  9992", "line2": "2 66633  53.1608 130.9090 0001227  61.4848 298.6280 15.39618587  6042"}}, "geometry": {"type": "Point", "coordinates": [9.125090480846957, -49.612222806692465]}}, {"type": "Feature", "properties": {"norad_id": 66634, "name": "STARLINK-35967", "group": "last-30-days", "lat": -52.411392322360975, "lon": 50.39531900146239, "alt_km": 452.44615576268825, "timestamp": "2025-12-25T09:48:51.003731+00:00", "meta": {"OBJECT_NAME": "STARLINK-35967", "OBJECT_ID": "2025-271T", "EPOCH": "2025-12-24T20:08:54.695616", "MEAN_MOTION": 15.39642253, "ECCENTRICITY": 9.606e-05, "INCLINATION": 53.1609, "RA_OF_ASC_NODE": 129.9588, "ARG_OF_PERICENTER": 81.7938, "MEAN_ANOMALY": 278.3176, "EPHEMERIS_TYPE": 0, "CLASSIFICATION_TYPE": "U", "NORAD_CAT_ID": 66634, "ELEMENT_SET_NO": 999, "REV_AT_EPOCH": 603, "BSTAR": 0.0011889181, "MEAN_MOTION_DOT": 0.00047487, "MEAN_MOTION_DDOT": 0}, "tle": {"line1": "1 66634U 25271T   25358.83952194  .00047487  00000+0  11889-2 0  9994", "line2": "2 66634  53.1609 129.9588 0000960  81.7938 278.3176 15.39642253  6037"}}, "geometry": {"type": "Point", "coordinates": [50.39531900146239, -52.411392322360975]}}]}